[{"OBJECT_NAME":"STARLINK-5867","OBJECT_ID":"2023-037E","EPOCH":"2026-03-09T22:47:45.367296","MEAN_MOTION":14.98330529,"ECCENTRICITY":0.00025962,"INCLINATION":69.9997,"RA_OF_ASC_NODE":303.9003,"ARG_OF_PERICENTER":272.6705,"MEAN_ANOMALY":87.4156,"EPHEMERIS_TYPE":0,"CLASSIFICATION_TYPE":"U","NORAD_CAT_ID":55918,"ELEMENT_SET_NO":999,"REV_AT_EPOCH":16352,"BSTAR":-2.9750202e-5,"MEAN_MOTION_DOT":-4.48e-6,"MEAN_MOTION_DDOT":0},{"OBJECT_NAME":"CZ-6A DEB","OBJECT_ID":"2022-151ACK","EPOCH":"2026-03-09T17:07:55.484832","MEAN_MOTION":14.91029585,"ECCENTRICITY":0.00541971,"INCLINATION":98.6318,"RA_OF_ASC_NODE":144.964,"ARG_OF_PERICENTER":183.961,"MEAN_ANOMALY":176.1184,"EPHEMERIS_TYPE":0,"CLASSIFICATION_TYPE":"U","NORAD_CAT_ID":56267,"ELEMENT_SET_NO":999,"REV_AT_EPOCH":16429,"BSTAR":0.0040603804,"MEAN_MOTION_DOT":0.00041466,"MEAN_MOTION_DDOT":0}]
